ONEWEB-0128             
1 47274U 20100S   24271.82779417 -.00000331  00000+0 -95625-3 0  9996
2 47274  87.8867 115.6351 0001797  92.2656 267.8678 13.12443164182459
ONEWEB-0129             
1 47275U 20100T   24271.80672530  .00000225  00000+0  58976-3 0  9991
2 47275  87.8861 115.5994 0003068  62.7745 297.3696 13.12441973182386
ONEWEB-0130             
1 47276U 20100U   24271.83428419 -.00000273  00000+0 -79484-3 0  9992
2 47276  87.8857 115.6003 0001822  84.6662 275.4674 13.12443872182351
ONEWEB-0131             
1 47277U 20100V   24271.83103933 -.00000335  00000+0 -96557-3 0  9993
2 47277  87.8859 115.6186 0001731  88.0713 272.0613 13.12443365182397
ONEWEB-0132             
1 47278U 20100W   24271.86025223  .00000461  00000+0  12449-2 0  9997
2 47278  87.8860 115.6144 0001498  88.9361 271.1939 13.12443924182293
ONEWEB-0133             
1 47279U 20100X   24272.10517545  .00000583  00000+0  15851-2 0  9994
2 47279  87.8851 115.5582 0001767  88.8126 271.3205 13.12448091182485
ONEWEB-0134             
1 47280U 20100Y   24271.84564016  .00000018  00000+0  14640-4 0  9991
2 47280  87.8853 115.5968 0001896  87.1283 273.0063 13.12446670182422
ONEWEB-0135             
1 47281U 20100Z   24271.81645500 -.00000053  00000+0 -18407-3 0  9992
2 47281  87.8859 115.6249 0002062  94.8223 265.3141 13.12441288182440
